STARLINK-4193           
1 52875U 22062AX  24301.42789013  .00002786  00000+0  19302-3 0  9993
2 52875  53.2162  90.9024 0001361  90.1539 269.9609 15.08842776131330
STARLINK-4200           
1 52876U 22062AY  24301.43524641  .00001500  00000+0  11234-3 0  9998
2 52876  53.2184  90.8680 0001376 104.7898 255.3247 15.08840746131330
STARLINK-4214           
1 52877U 22062AZ  24300.73972838  .00001168  00000+0  91475-4 0  9992
2 52877  53.2177  94.0014 0001550 107.3264 252.7898 15.08839796130740
STARLINK-4171           
1 52878U 22062BA  24301.15924452  .00001510  00000+0  11294-3 0  9990
2 52878  53.2179  92.1090 0001289  94.9523 265.1616 15.08848089131296
STARLINK-4139           
1 52879U 22062BB  24300.72868243  .00001771  00000+0  12933-3 0  9998
2 52879  53.2166  94.0398 0001315  87.6101 272.5041 15.08843127130747
STARLINK-4186           
1 52880U 22062BC  24301.12980548  .00001787  00000+0  13031-3 0  9995
2 52880  53.2176  92.2393 0001298  86.4255 273.6886 15.08840660131291
STARLINK-4181           
1 52882U 22062BE  24301.41311296  .00001023  00000+0  82347-4 0  9997
2 52882  53.2175  90.5424 0001349  86.7673 273.3474 15.08846474131347
STARLINK-4260           
1 52986U 22076A   24300.92372208  .00001554  00000+0  11570-3 0  9990
2 52986  53.2165 173.1690 0001402  93.0321 267.0831 15.08848873128017
STARLINK-4259           
1 52987U 22076B   24301.09576937  .00011429  00000+0  73472-3 0  9996
2 52987  53.2164 182.3929 0001550  97.6988 262.4181 15.08853512127907
STARLINK-4291           
1 52988U 22076C   24300.92007659 -.00003400  00000+0 -19577-3 0  9996
2 52988  53.2171 173.1869 0001202  83.4073 276.7056 15.08811183128019
STARLINK-4293           
1 52989U 22076D   24301.09209003  .00008725  00000+0  56548-3 0  9995
2 52989  53.2165 182.4100 0001454  92.1838 267.9321 15.08848904127904
STARLINK-4286           
1 52990U 22076E   24301.08840880  .00002823  00000+0  19530-3 0  9993
2 52990  53.2154 182.4262 0001316  93.5724 266.5418 15.08851738127900
STARLINK-4285           
1 52991U 22076F   24300.95224926  .00011694  00000+0  75142-3 0  9993
2 52991  53.2157 183.0397 0001642  89.9486 270.1694 15.08848455127882
STARLINK-4269           
1 52992U 22076G   24300.94952785  .00007333  00000+0  47815-3 0  9995
2 52992  53.2163 183.0603 0001325  88.9609 271.1535 15.08854102127414
STARLINK-4264           
1 52993U 22076H   24300.91637095  .00002223  00000+0  15768-3 0  9992
2 52993  53.2161 173.2010 0001745  77.7704 282.3483 15.08852979128017
STARLINK-4256           
1 52994U 22076J   24300.91269085  .00008639  00000+0  56009-3 0  9993
2 52994  53.2159 173.2184 0001290  86.1055 274.0085 15.08846091128019
STARLINK-4296           
1 52995U 22076K   24300.90533373  .00002562  00000+0  17901-3 0  9994
2 52995  53.2147 173.2512 0001233  79.1055 281.0076 15.08843475128012
STARLINK-4295           
1 52996U 22076L   24300.93575842  .00005033  00000+0  33399-3 0  9990
2 52996  53.2157 173.3920 0001489  93.7887 266.3275 15.08851908128013
STARLINK-4301           
1 52997U 22076M   24301.58334491  .00079574  00000+0  10171-2 0  9999
2 52997  53.2345  89.9058 0004599 166.7096  72.4313 15.58562622129281
STARLINK-4254           
1 52998U 22076N   24301.35794928  .00004257  00000+0  28535-3 0  9990
2 52998  53.2169 171.1296 0001341  75.2525 284.8616 15.08846710128087
STARLINK-4217           
1 52999U 22076P   24301.01940788  .00002295  00000+0  16222-3 0  9991
2 52999  53.2159 172.7339 0001076  77.6220 282.4892 15.08844805128033
STARLINK-4194           
1 53000U 22076Q   24301.36532444  .00003087  00000+0  21193-3 0  9992
2 53000  53.2170 171.1821 0001285  97.0816 263.0323 15.08849987128083
STARLINK-4190           
1 53001U 22076R   24301.34692579  .00009489  00000+0  61317-3 0  9991
2 53001  53.2166 171.2671 0001401  98.3259 261.7892 15.08858313128087
STARLINK-4121           
1 53002U 22076S   24301.03044606  .00000327  00000+0  38654-4 0  9991
2 53002  53.2165 172.6884 0001462  89.1168 270.9992 15.08845039128031
STARLINK-4255           
1 53003U 22076T   24300.94212926  .00005481  00000+0  36206-3 0  9999
2 53003  53.2154 173.0818 0001290  83.4714 276.6425 15.08851354128025
STARLINK-4253           
1 53004U 22076U   24301.08932786  .00006606  00000+0  43258-3 0  9994
2 53004  53.2158 172.4230 0001338 102.0293 258.0850 15.08853632128043
STARLINK-4288           
1 53005U 22076V   24300.93845009  .00003324  00000+0  22680-3 0  9999
2 53005  53.2161 173.0966 0001384  97.8274 262.2875 15.08850347128024
STARLINK-4290           
1 53006U 22076W   24301.34324322  .00004294  00000+0  28764-3 0  9992
2 53006  53.2131 171.2784 0000969  90.9114 269.1989 15.08848656128083
STARLINK-4215           
1 53007U 22076X   24300.93108891  .00002853  00000+0  19722-3 0  9991
2 53007  53.2153 173.1335 0001209  90.7514 269.3617 15.08846174127555
STARLINK-4275           
1 53008U 22076Y   24300.93474496  .00015753  00000+0  10042-2 0  9997
2 53008  53.2163 173.1037 0001481  96.5058 263.6103 15.08893581127556
STARLINK-4277           
1 53009U 22076Z   24301.31471496  .00003178  00000+0  21759-3 0  9994
2 53009  53.2164 161.4107 0001309  84.2598 275.8543 15.08853295128213
STARLINK-4263           
1 53010U 22076AA  24301.04145476  .00005768  00000+0  38005-3 0  9991
2 53010  53.2160 172.3684 0001359  88.2110 271.9038 15.08852846128049
STARLINK-4265           
1 53011U 22076AB  24300.91360933  .00002447  00000+0  17174-3 0  9999
2 53011  53.2154 163.2125 0001242  90.1715 269.9419 15.08842934128155
STARLINK-4271           
1 53012U 22076AC  24300.86116529 -.00000463  00000+0 -10974-4 0  9994
2 53012  53.2161 173.4499 0001313  86.8159 273.2984 15.08849322128012
STARLINK-4177           
1 53013U 22076AD  24300.90624043  .00002485  00000+0  17413-3 0  9993
2 53013  53.2165 163.2474 0001599  86.5470 273.5705 15.08851289128150
STARLINK-4183           
1 53014U 22076AE  24301.31840535  .00005128  00000+0  33994-3 0  9995
2 53014  53.2166 161.3969 0001357 102.5864 257.5280 15.08850770128219
STARLINK-4262           
1 53015U 22076AF  24301.03136654  .00005216  00000+0  34542-3 0  9993
2 53015  53.2158 162.6866 0001336  94.9520 265.1624 15.08856492128170
STARLINK-4283           
1 53016U 22076AG  24301.04241693  .00000040  00000+0  20585-4 0  9998
2 53016  53.2156 162.6334 0001439  78.7522 281.3632 15.08835228128178
STARLINK-4281           
1 53017U 22076AH  24300.89520810  .00003013  00000+0  20729-3 0  9994
2 53017  53.2164 163.2943 0001445 108.5363 251.5786 15.08846493128156
STARLINK-4279           
1 53018U 22076AJ  24301.32948212  .00003139  00000+0  21519-3 0  9991
2 53018  53.2159 161.6022 0001272  91.8909 268.2229 15.08845056128217
STARLINK-4282           
1 53019U 22076AK  24301.35152816  .00005345  00000+0  35360-3 0  9992
2 53019  53.2150 161.2478 0001382  93.2446 266.8704 15.08846908128224
STARLINK-4287           
1 53020U 22076AL  24301.03504580  .00003799  00000+0  25656-3 0  9996
2 53020  53.2150 162.6663 0001422  92.9306 267.1848 15.08850816128173
STARLINK-4203           
1 53021U 22076AM  24301.34416790  .00004437  00000+0  29676-3 0  9992
2 53021  53.2167 161.2752 0001413 111.4594 248.6549 15.08829267128226
STARLINK-4216           
1 53022U 22076AN  24301.35520491  .00015867  00000+0  10126-2 0  9996
2 53022  53.2153 161.2307 0001587  95.4768 264.6406 15.08845173128228
STARLINK-4284           
1 53023U 22076AP  24300.93936929  .00001516  00000+0  11333-3 0  9995
2 53023  53.2155 163.0890 0001324  89.5709 270.5435 15.08843375128169
STARLINK-4289           
1 53024U 22076AQ  24301.34048134  .00004696  00000+0  31287-3 0  9996
2 53024  53.2160 161.2937 0001331  89.7507 270.3637 15.08850731128227
STARLINK-4218           
1 53025U 22076AR  24300.86945146  .00001246  00000+0  96375-4 0  9990
2 53025  53.2154 163.4129 0001354  89.3591 270.7556 15.08841563128151
STARLINK-4119           
1 53026U 22076AS  24301.33775367  .00004241  00000+0  28438-3 0  9992
2 53026  53.2161 161.2019 0001208  87.7680 272.3450 15.08844359128228
STARLINK-4158           
1 53027U 22076AT  24301.32208490  .00006159  00000+0  40451-3 0  9999
2 53027  53.2160 161.3782 0001321  86.9232 273.1912 15.08856820128224
STARLINK-4143           
1 53029U 22076AV  24301.30830115  .00002528  00000+0  17686-3 0  9994
2 53029  53.2158 151.4424 0001286 121.9719 238.1398 15.08841174128355
STARLINK-4160           
1 53030U 22076AW  24301.34787339  .00002917  00000+0  20130-3 0  9999
2 53030  53.2149 161.4557 0001484  94.6713 265.4449 15.08843387128229
STARLINK-4137           
1 53031U 22076AX  24301.03229054  .00004339  00000+0  29039-3 0  9998
2 53031  53.2162 152.6789 0001455  97.8338 262.2819 15.08860169128313
STARLINK-4115           
1 53032U 22076AY  24300.99456803  .00003943  00000+0  26562-3 0  9995
2 53032  53.2159 162.8508 0001408  94.8055 265.3097 15.08849099128178
STARLINK-4167           
1 53033U 22076AZ  24300.90349372 -.00000676  00000+0 -24382-4 0  9990
2 53033  53.2160 153.2556 0002208 111.8564 248.2663 15.08843449128297
STARLINK-4151           
1 53034U 22076BA  24300.97805855  .00001586  00000+0  11770-3 0  9996
2 53034  53.2155 152.9703 0001444  84.0502 276.0654 15.08837555128296
STARLINK-4157           
1 53035U 22076BB  24301.02860697  .00002839  00000+0  19632-3 0  9996
2 53035  53.2156 152.6957 0001320  82.3960 277.7182 15.08847298128309
STARLINK-4155           
1 53036U 22076BC  24301.28988290  .00005367  00000+0  35494-3 0  9998
2 53036  53.2160 151.5226 0001330  88.1148 271.9997 15.08853407128348
STARLINK-4153           
1 53037U 22076BD  24301.02124951  .00002881  00000+0  19903-3 0  9992
2 53037  53.2152 152.7297 0001402  91.0734 269.0419 15.08844575128304
STARLINK-4156           
1 53038U 22076BE  24300.88510707  .00002324  00000+0  16405-3 0  9990
2 53038  53.2151 153.3413 0001274  93.1687 266.9451 15.08834222128285
